[
  {
    "name": "Argentina",
    "code": "AR",
    "phone_code": "+54",
    "flag": "ðŸ‡¦ðŸ‡·",
    "used_in": ["AR", "CL", "UY", "PY", "BR", "US", "ES"]
  },
  {
    "name": "Bolivia",
    "code": "BO",
    "phone_code": "+591",
    "flag": "ðŸ‡§ðŸ‡´",
    "used_in": ["BO", "AR", "BR"]
  },
  {
    "name": "Brasil",
    "code": "BR",
    "phone_code": "+55",
    "flag": "ðŸ‡§ðŸ‡·",
    "used_in": ["BR", "AR", "US"]
  },
  {
    "name": "CanadÃ¡",
    "code": "CA",
    "phone_code": "+1",
    "flag": "ðŸ‡¨ðŸ‡¦",
    "used_in": ["CA", "US"]
  },
  {
    "name": "Chile",
    "code": "CL",
    "phone_code": "+56",
    "flag": "ðŸ‡¨ðŸ‡±",
    "used_in": ["CL", "AR"]
  },
  {
    "name": "Colombia",
    "code": "CO",
    "phone_code": "+57",
    "flag": "ðŸ‡¨ðŸ‡´",
    "used_in": ["CO", "AR", "US", "ES"]
  },
  {
    "name": "Costa Rica",
    "code": "CR",
    "phone_code": "+506",
    "flag": "ðŸ‡¨ðŸ‡·",
    "used_in": ["CR", "US"]
  },
  {
    "name": "Cuba",
    "code": "CU",
    "phone_code": "+53",
    "flag": "ðŸ‡¨ðŸ‡º",
    "used_in": ["CU", "US"]
  },
  {
    "name": "Ecuador",
    "code": "EC",
    "phone_code": "+593",
    "flag": "ðŸ‡ªðŸ‡¨",
    "used_in": ["EC", "CO", "US"]
  },
  {
    "name": "El Salvador",
    "code": "SV",
    "phone_code": "+503",
    "flag": "ðŸ‡¸ðŸ‡»",
    "used_in": ["SV", "US"]
  },
  {
    "name": "Guatemala",
    "code": "GT",
    "phone_code": "+502",
    "flag": "ðŸ‡¬ðŸ‡¹",
    "used_in": ["GT", "US"]
  },
  {
    "name": "Honduras",
    "code": "HN",
    "phone_code": "+504",
    "flag": "ðŸ‡­ðŸ‡³",
    "used_in": ["HN", "US"]
  },
  {
    "name": "MÃ©xico",
    "code": "MX",
    "phone_code": "+52",
    "flag": "ðŸ‡²ðŸ‡½",
    "used_in": ["MX", "US", "AR"]
  },
  {
    "name": "Nicaragua",
    "code": "NI",
    "phone_code": "+505",
    "flag": "ðŸ‡³ðŸ‡®",
    "used_in": ["NI", "US"]
  },
  {
    "name": "PanamÃ¡",
    "code": "PA",
    "phone_code": "+507",
    "flag": "ðŸ‡µðŸ‡¦",
    "used_in": ["PA", "US"]
  },
  {
    "name": "Paraguay",
    "code": "PY",
    "phone_code": "+595",
    "flag": "ðŸ‡µðŸ‡¾",
    "used_in": ["PY", "AR"]
  },
  {
    "name": "PerÃº",
    "code": "PE",
    "phone_code": "+51",
    "flag": "ðŸ‡µðŸ‡ª",
    "used_in": ["PE", "AR", "CL"]
  },
  {
    "name": "Puerto Rico",
    "code": "PR",
    "phone_code": "+1",
    "flag": "ðŸ‡µðŸ‡·",
    "used_in": ["PR", "US"]
  },
  {
    "name": "RepÃºblica Dominicana",
    "code": "DO",
    "phone_code": "+1",
    "flag": "ðŸ‡©ðŸ‡´",
    "used_in": ["DO", "US"]
  },
  {
    "name": "Uruguay",
    "code": "UY",
    "phone_code": "+598",
    "flag": "ðŸ‡ºðŸ‡¾",
    "used_in": ["UY", "AR"]
  },
  {
    "name": "Venezuela",
    "code": "VE",
    "phone_code": "+58",
    "flag": "ðŸ‡»ðŸ‡ª",
    "used_in": ["VE", "CO", "US", "AR"]
  },
  {
    "name": "Estados Unidos",
    "code": "US",
    "phone_code": "+1",
    "flag": "ðŸ‡ºðŸ‡¸",
    "used_in": ["US", "CA", "MX"]
  },
  {
    "name": "Alemania",
    "code": "DE",
    "phone_code": "+49",
    "flag": "ðŸ‡©ðŸ‡ª",
    "used_in": ["DE", "US"]
  },
  {
    "name": "EspaÃ±a",
    "code": "ES",
    "phone_code": "+34",
    "flag": "ðŸ‡ªðŸ‡¸",
    "used_in": ["ES", "AR", "MX", "VE"]
  },
  {
    "name": "Francia",
    "code": "FR",
    "phone_code": "+33",
    "flag": "ðŸ‡«ðŸ‡·",
    "used_in": ["FR", "ES"]
  },
  {
    "name": "Italia",
    "code": "IT",
    "phone_code": "+39",
    "flag": "ðŸ‡®ðŸ‡¹",
    "used_in": ["IT", "FR"]
  },
  {
    "name": "PaÃ­ses Bajos",
    "code": "NL",
    "phone_code": "+31",
    "flag": "ðŸ‡³ðŸ‡±",
    "used_in": ["NL", "DE"]
  },
  {
    "name": "Portugal",
    "code": "PT",
    "phone_code": "+351",
    "flag": "ðŸ‡µðŸ‡¹",
    "used_in": ["PT", "ES", "BR"]
  },
  {
    "name": "Reino Unido",
    "code": "GB",
    "phone_code": "+44",
    "flag": "ðŸ‡¬ðŸ‡§",
    "used_in": ["GB", "IE"]
  },
  {
    "name": "Rusia",
    "code": "RU",
    "phone_code": "+7",
    "flag": "ðŸ‡·ðŸ‡º",
    "used_in": ["RU"]
  },
  {
    "name": "Suiza",
    "code": "CH",
    "phone_code": "+41",
    "flag": "ðŸ‡¨ðŸ‡­",
    "used_in": ["CH", "DE", "FR"]
  },
  {
    "name": "Suecia",
    "code": "SE",
    "phone_code": "+46",
    "flag": "ðŸ‡¸ðŸ‡ª",
    "used_in": ["SE", "NO"]
  }
]
